{
  "links" : {
    "next" : "https://api.nasa.gov/neo/rest/v1/feed?start_date=2012-10-23&end_date=2012-10-23&detailed=true&api_key=t0TVs3DtDT2H8Oy2Zy8m2eVrNsAVKAexjcZXUckd",
    "prev" : "https://api.nasa.gov/neo/rest/v1/feed?start_date=2012-10-21&end_date=2012-10-21&detailed=true&api_key=t0TVs3DtDT2H8Oy2Zy8m2eVrNsAVKAexjcZXUckd",
    "self" : "https://api.nasa.gov/neo/rest/v1/feed?start_date=2012-10-22&end_date=2012-10-22&detailed=true&api_key=t0TVs3DtDT2H8Oy2Zy8m2eVrNsAVKAexjcZXUckd"
  },
  "element_count" : 12,
  "near_earth_objects" : {
    "2012-10-22" : [ {
      "links" : {
        "self" : "https://api.nasa.gov/neo/rest/v1/neo/3610178?api_key=t0TVs3DtDT2H8Oy2Zy8m2eVrNsAVKAexjcZXUckd"
      },
      "neo_reference_id" : "3610178",
      "name" : "(2012 TJ79)",
      "nasa_jpl_url" : "http://ssd.jpl.nasa.gov/sbdb.cgi?sstr=3610178",
      "absolute_magnitude_h" : 23.4,
      "estimated_diameter" : {
        "kilometers" : {
          "estimated_diameter_min" : 0.0555334912,
          "estimated_diameter_max" : 0.1241766613
        },
        "meters" : {
          "estimated_diameter_min" : 55.5334911581,
          "estimated_diameter_max" : 124.1766612574
        },
        "miles" : {
          "estimated_diameter_min" : 0.0345069009,
          "estimated_diameter_max" : 0.0771597762
        },
        "feet" : {
          "estimated_diameter_min" : 182.1964991311,
          "estimated_diameter_max" : 407.4037573197
        }
      },
      "is_potentially_hazardous_asteroid" : false,
      "close_approach_data" : [ {
        "close_approach_date" : "2012-10-22",
        "epoch_date_close_approach" : 1350889200000,
        "relative_velocity" : {
          "kilometers_per_second" : "7.1466994343",
          "kilometers_per_hour" : "25728.1179635531",
          "miles_per_hour" : "15986.4519646311"
        },
        "miss_distance" : {
          "astronomical" : "0.1340832106",
          "lunar" : "52.1583709717",
          "kilometers" : "20058564",
          "miles" : "12463813"
        },
        "orbiting_body" : "Earth"
      } ],
      "orbital_data" : {
        "orbit_id" : "9",
        "orbit_determination_date" : "2017-04-06 08:48:40",
        "orbit_uncertainty" : "7",
        "minimum_orbit_intersection" : ".116413",
        "jupiter_tisserand_invariant" : "4.432",
        "epoch_osculation" : "2458000.5",
        "eccentricity" : ".3271141029060111",
        "semi_major_axis" : "1.514865157950902",
        "inclination" : "12.14223269323035",
        "ascending_node_longitude" : "188.0477610941284",
        "orbital_period" : "681.0192565088805",
        "perihelion_distance" : "1.01933140078422",
        "perihelion_argument" : "240.8208851368971",
        "aphelion_distance" : "2.010398915117584",
        "perihelion_time" : "2458306.781941574184",
        "mean_anomaly" : "198.093419660493",
        "mean_motion" : ".5286194135617743",
        "equinox" : "J2000"
      }
    }, {
      "links" : {
        "self" : "https://api.nasa.gov/neo/rest/v1/neo/3614983?api_key=t0TVs3DtDT2H8Oy2Zy8m2eVrNsAVKAexjcZXUckd"
      },
      "neo_reference_id" : "3614983",
      "name" : "(2012 UW158)",
      "nasa_jpl_url" : "http://ssd.jpl.nasa.gov/sbdb.cgi?sstr=3614983",
      "absolute_magnitude_h" : 23.8,
      "estimated_diameter" : {
        "kilometers" : {
          "estimated_diameter_min" : 0.046190746,
          "estimated_diameter_max" : 0.1032856481
        },
        "meters" : {
          "estimated_diameter_min" : 46.1907460282,
          "estimated_diameter_max" : 103.2856480504
        },
        "miles" : {
          "estimated_diameter_min" : 0.0287015901,
          "estimated_diameter_max" : 0.0641787064
        },
        "feet" : {
          "estimated_diameter_min" : 151.544447199,
          "estimated_diameter_max" : 338.8636855496
        }
      },
      "is_potentially_hazardous_asteroid" : false,
      "close_approach_data" : [ {
        "close_approach_date" : "2012-10-22",
        "epoch_date_close_approach" : 1350889200000,
        "relative_velocity" : {
          "kilometers_per_second" : "26.5753042442",
          "kilometers_per_hour" : "95671.0952789414",
          "miles_per_hour" : "59446.29806374"
        },
        "miss_distance" : {
          "astronomical" : "0.027180897",
          "lunar" : "10.5733690262",
          "kilometers" : "4066204.25",
          "miles" : "2526622.25"
        },
        "orbiting_body" : "Earth"
      } ],
      "orbital_data" : {
        "orbit_id" : "4",
        "orbit_determination_date" : "2017-04-06 08:48:18",
        "orbit_uncertainty" : "9",
        "minimum_orbit_intersection" : ".0267454",
        "jupiter_tisserand_invariant" : "3.106",
        "epoch_osculation" : "2456226.5",
        "eccentricity" : ".6862746573715709",
        "semi_major_axis" : "2.232371602910374",
        "inclination" : "35.56051097223197",
        "ascending_node_longitude" : "31.13125915742422",
        "orbital_period" : "1218.282935161133",
        "perihelion_distance" : ".7003515459970325",
        "perihelion_argument" : "282.0410610129084",
        "aphelion_distance" : "3.764391659823715",
        "perihelion_time" : "2456177.401499766781",
        "mean_anomaly" : "14.50850173947568",
        "mean_motion" : ".2954978598238228",
        "equinox" : "J2000"
      }
    }, {
      "links" : {
        "self" : "https://api.nasa.gov/neo/rest/v1/neo/3615558?api_key=t0TVs3DtDT2H8Oy2Zy8m2eVrNsAVKAexjcZXUckd"
      },
      "neo_reference_id" : "3615558",
      "name" : "(2012 UB174)",
      "nasa_jpl_url" : "http://ssd.jpl.nasa.gov/sbdb.cgi?sstr=3615558",
      "absolute_magnitude_h" : 24.9,
      "estimated_diameter" : {
        "kilometers" : {
          "estimated_diameter_min" : 0.0278326768,
          "estimated_diameter_max" : 0.0622357573
        },
        "meters" : {
          "estimated_diameter_min" : 27.8326768072,
          "estimated_diameter_max" : 62.2357573367
        },
        "miles" : {
          "estimated_diameter_min" : 0.0172944182,
          "estimated_diameter_max" : 0.0386714948
        },
        "feet" : {
          "estimated_diameter_min" : 91.3145593761,
          "estimated_diameter_max" : 204.1855621004
        }
      },
      "is_potentially_hazardous_asteroid" : false,
      "close_approach_data" : [ {
        "close_approach_date" : "2012-10-22",
        "epoch_date_close_approach" : 1350889200000,
        "relative_velocity" : {
          "kilometers_per_second" : "12.9097698154",
          "kilometers_per_hour" : "46475.1713353356",
          "miles_per_hour" : "28877.8641000034"
        },
        "miss_distance" : {
          "astronomical" : "0.0158388518",
          "lunar" : "6.1613135338",
          "kilometers" : "2369458.5",
          "miles" : "1472313.25"
        },
        "orbiting_body" : "Earth"
      } ],
      "orbital_data" : {
        "orbit_id" : "4",
        "orbit_determination_date" : "2017-04-06 08:48:16",
        "orbit_uncertainty" : "8",
        "minimum_orbit_intersection" : ".0156089",
        "jupiter_tisserand_invariant" : "4.858",
        "epoch_osculation" : "2456227.5",
        "eccentricity" : ".3311063341063797",
        "semi_major_axis" : "1.315970276044955",
        "inclination" : "17.63768171443333",
        "ascending_node_longitude" : "211.1780525982718",
        "orbital_period" : "551.4009966757153",
        "perihelion_distance" : ".8802441821507495",
        "perihelion_argument" : "117.7169357550976",
        "aphelion_distance" : "1.751696369939161",
        "perihelion_time" : "2456175.027109661166",
        "mean_anomaly" : "34.25862600152279",
        "mean_motion" : ".6528823889879904",
        "equinox" : "J2000"
      }
    } ]
  }
}